      2.10          N: GNSS NAV DATA                        RINEX VERSION / TYPE
fic2rin                                 12/16/2018 00:20:21 PGM / RUN BY / DATE
                                                            END OF HEADER
13 18 12 15  8  0  0.0-8.152797818184e-05 1.136868377216e-12 0.000000000000e+00
    7.600000000000e+01 3.106250000000e+01 4.250534194668e-09 2.671217317849e+00
    1.626089215279e-06 3.690515179187e-03 9.316951036453e-06 5.153667451859e+03
    5.472000000000e+05 4.470348358154e-08 2.235054479196e+00 8.568167686462e-08
    9.679198236658e-01 2.034375000000e+02 1.401243844916e+00-7.794967548830e-09
    1.632210845276e-10 1.000000000000e+00 2.031000000000e+03 0.000000000000e+00
    2.400000000000e+00 0.000000000000e+00-1.117587089539e-08 7.600000000000e+01
    5.400060000000e+05 4.000000000000e+00
21 18 12 15  8  0  0.0-2.870392054319e-04 6.707523425575e-12 0.000000000000e+00
    6.900000000000e+01-1.415625000000e+01 5.262362055645e-09-1.134492970472e-01
   -6.258487701416e-07 2.457067987416e-02 5.267560482025e-06 5.153566398621e+03
    5.472000000000e+05-3.892928361893e-07-3.497427217882e-02-2.235174179077e-08
    9.467125849163e-01 2.753750000000e+02-1.504113394486e+00-8.984302803702e-09
    1.628639267934e-10 1.000000000000e+00 2.031000000000e+03 0.000000000000e+00
    2.400000000000e+00 0.000000000000e+00-9.778887033463e-09 6.900000000000e+01
    5.400060000000e+05 4.000000000000e+00
19 18 12 15  8  0  0.0-3.737001679838e-04 3.865352482535e-12 0.000000000000e+00
    9.000000000000e+01 2.337500000000e+01 4.133029300117e-09 2.844440596197e-01
    1.290813088417e-06 9.409325663000e-03 7.042661309242e-06 5.153613162994e+03
    5.472000000000e+05-1.527369022369e-07-9.290550656841e-01 4.097819328308e-08
    9.813046346369e-01 2.574375000000e+02 1.322501620987e+00-8.059621429869e-09
    1.107188976008e-10 1.000000000000e+00 2.031000000000e+03 0.000000000000e+00
    3.400000000000e+00 0.000000000000e+00-1.536682248116e-08 9.000000000000e+01
    5.400060000000e+05 4.000000000000e+00
17 18 12 15  8  0  0.0-1.838104799390e-05 5.115907697473e-12 0.000000000000e+00
    9.100000000000e+01 2.450000000000e+01 3.991237679641e-09-2.483981564991e+00
    1.339241862297e-06 1.296441373415e-02 6.863847374916e-06 5.153662631989e+03
    5.472000000000e+05 1.583248376846e-07-9.756402436294e-01 7.450580596924e-08
    9.835935528367e-01 2.565625000000e+02-1.748966254893e+00-7.662104871709e-09
    2.239378993409e-10 1.000000000000e+00 2.031000000000e+03 0.000000000000e+00
    3.400000000000e+00 0.000000000000e+00-1.117587089539e-08 9.100000000000e+01
    5.400060000000e+05 4.000000000000e+00
31 18 12 15  8  0  0.0 7.271813228726e-05-2.614797267597e-12 0.000000000000e+00
    4.700000000000e+01 3.481250000000e+01 4.628407077447e-09 6.492999510920e-01
    1.905485987663e-06 9.125302080065e-03 6.010755896568e-06 5.153794105530e+03
    5.472000000000e+05 1.713633537292e-07-3.092890390339e+00 8.754432201385e-08
    9.617269359472e-01 2.609375000000e+02-5.574688967029e-02-8.196412842066e-09
    3.928735076157e-12 1.000000000000e+00 2.031000000000e+03 0.000000000000e+00
    2.400000000000e+00 0.000000000000e+00-1.350417733192e-08 4.700000000000e+01
    5.400060000000e+05 4.000000000000e+00
32 18 12 15  8  0  0.0-3.178948536515e-04 1.557509676786e-11 0.000000000000e+00
    9.800000000000e+01 1.128125000000e+01 4.466257466122e-09-1.681983507764e+00
    6.761401891708e-07 2.379426266998e-03 1.003406941891e-05 5.153735439301e+03
    5.472000000000e+05 1.676380634308e-08 2.106224675889e+00-1.043081283569e-07
    9.565796572223e-01 1.865625000000e+02-2.628593853725e+00-7.872827934884e-09
    1.260766801712e-10 1.000000000000e+00 2.031000000000e+03 0.000000000000e+00
    3.400000000000e+00 0.000000000000e+00 4.656612873077e-10 9.800000000000e+01
    5.400060000000e+05 4.000000000000e+00
26 18 12 15  8  0  0.0 6.819562986493e-05 1.080024958355e-11 0.000000000000e+00
    6.500000000000e+01-3.687500000000e+00 4.686623788121e-09-5.943444430488e-01
   -1.955777406693e-07 3.369630314410e-03 7.124617695808e-06 5.153765739441e+03
    5.472000000000e+05 8.940696716309e-08-2.097504701056e+00-5.029141902924e-08
    9.535487820828e-01 2.356250000000e+02 5.678555858073e-02-8.242129032043e-09
   -2.342954736326e-10 1.000000000000e+00 2.031000000000e+03 0.000000000000e+00
    2.400000000000e+00 0.000000000000e+00 7.450580596924e-09 6.500000000000e+01
    5.400060000000e+05 4.000000000000e+00
20 18 12 15  8  0  0.0 5.199662409723e-04 4.547473508865e-13 0.000000000000e+00
    5.600000000000e+01-7.415625000000e+01 5.359508959346e-09 1.403963415477e+00
   -4.006549715996e-06 4.493127809837e-03 7.107853889465e-06 5.153671346664e+03
    5.472000000000e+05 1.061707735062e-07 9.508846531911e-01-3.352761268616e-08
    9.294418070962e-01 2.225000000000e+02 2.204447500247e+00-8.482496187157e-09
   -2.396528396456e-10 1.000000000000e+00 2.031000000000e+03 0.000000000000e+00
    2.400000000000e+00 0.000000000000e+00-8.381903171539e-09 5.600000000000e+01
    5.400060000000e+05 4.000000000000e+00
24 18 12 15  8  0  0.0-5.952408537269e-05-4.547473508865e-13 0.000000000000e+00
    1.630000000000e+02 3.734375000000e+01 5.130213693993e-09 1.988703652118e+00
    1.907348632812e-06 7.877333089709e-03 6.295740604401e-06 5.153736701965e+03
    5.472000000000e+05-1.732259988785e-07 3.113787010619e+00-2.048909664154e-08
    9.402223971339e-01 2.468437500000e+02 5.655774317588e-01-8.409278851647e-09
   -1.857220217820e-11 1.000000000000e+00 2.031000000000e+03 0.000000000000e+00
    3.400000000000e+00 0.000000000000e+00 2.793967723846e-09 1.630000000000e+02
    5.400060000000e+05 4.000000000000e+00
28 18 12 15  8  0  0.0 7.585608400404e-04 1.477928890381e-12 0.000000000000e+00
    8.500000000000e+01 1.768750000000e+01 3.919806132802e-09-1.602649763150e+00
    1.339241862297e-06 1.961071253754e-02 7.556751370430e-06 5.153699645996e+03
    5.472000000000e+05-2.607703208923e-08-1.986614357868e+00 5.420297384262e-07
    9.838705593008e-01 2.471875000000e+02-1.488766895220e+00-7.784609974538e-09
   -1.578637185147e-10 1.000000000000e+00 2.031000000000e+03 0.000000000000e+00
    3.400000000000e+00 0.000000000000e+00-1.117587089539e-08 8.500000000000e+01
    5.400060000000e+05 4.000000000000e+00
19 18 12 15  7 59 44.0-3.737006336451e-04 3.865352482535e-12 0.000000000000e+00
    8.000000000000e+00 2.337500000000e+01 4.132672142383e-09 2.821097924224e-01
    1.290813088417e-06 9.409323451109e-03 7.042661309242e-06 5.153613159180e+03
    5.471840000000e+05-1.527369022369e-07-9.290549384102e-01 4.097819328308e-08
    9.813046360998e-01 2.574375000000e+02 1.322502113990e+00-8.059621429869e-09
    1.107188976008e-10 1.000000000000e+00 2.031000000000e+03 0.000000000000e+00
    2.400000000000e+00 0.000000000000e+00-1.536682248116e-08 8.000000000000e+00
    5.422860000000e+05 4.000000000000e+00
32 18 12 15  7 59 44.0-3.178948536515e-04 1.557509676786e-11 0.000000000000e+00
    6.000000000000e+00 1.128125000000e+01 4.466614623856e-09-1.684316884045e+00
    6.761401891708e-07 2.379430923611e-03 1.003406941891e-05 5.153735441208e+03
    5.471840000000e+05 1.676380634308e-08 2.106224794385e+00-1.043081283569e-07
    9.565796367415e-01 1.865625000000e+02-2.628594093644e+00-7.873185092618e-09
    1.260766801712e-10 1.000000000000e+00 2.031000000000e+03 0.000000000000e+00
    2.400000000000e+00 0.000000000000e+00 4.656612873077e-10 6.000000000000e+00
    5.428260000000e+05 4.000000000000e+00
 1 18 12 15  7 59 44.0-1.292033120990e-04-5.911715561524e-12 0.000000000000e+00
    7.000000000000e+00-2.131250000000e+01 4.487329772440e-09 1.621189338598e+00
   -1.084059476852e-06 8.205558406189e-03 5.101785063744e-06 5.153662189484e+03
    5.471840000000e+05-1.825392246246e-07 2.480712611638e-02 1.471489667892e-07
    9.739580370559e-01 2.890312500000e+02 6.942151948837e-01-8.182483690432e-09
    8.964659128322e-11 1.000000000000e+00 2.031000000000e+03 0.000000000000e+00
    2.400000000000e+00 0.000000000000e+00 5.587935447693e-09 7.000000000000e+00
    5.433660000000e+05 4.000000000000e+00
 1 18 12 15  9 59 44.0-1.292456872761e-04-5.911715561524e-12 0.000000000000e+00
    8.000000000000e+00-1.500000000000e+01 4.416612541069e-09 2.671507591517e+00
   -8.307397365570e-07 8.206109283492e-03 5.340203642845e-06 5.153659940720e+03
    5.543840000000e+05-5.960464477539e-08 2.474857867193e-02-8.381903171539e-08
    9.739599739594e-01 2.830312500000e+02 6.940855159734e-01-7.954259898281e-09
    1.603638226540e-10 1.000000000000e+00 2.031000000000e+03 0.000000000000e+00
    2.400000000000e+00 0.000000000000e+00 5.587935447693e-09 8.000000000000e+00
    5.472060000000e+05 4.000000000000e+00
19 18 12 15  9 59 44.0-3.736726939678e-04 3.865352482535e-12 0.000000000000e+00
    9.000000000000e+00 1.268750000000e+01 4.067669434759e-09 1.332195239485e+00
    6.053596735001e-07 9.410505066626e-03 7.336959242821e-06 5.153616378784e+03
    5.543840000000e+05-2.216547727585e-07-9.291132049744e-01-1.136213541031e-07
    9.813057362142e-01 2.520000000000e+02 1.322630814208e+00-7.973546415928e-09
    1.600066649198e-10 1.000000000000e+00 2.031000000000e+03 0.000000000000e+00
    2.400000000000e+00 0.000000000000e+00-1.536682248116e-08 9.000000000000e+00
    5.472060000000e+05 4.000000000000e+00
32 18 12 15  9 59 44.0-3.177826292813e-04 1.557509676786e-11 0.000000000000e+00
    7.000000000000e+00 1.584375000000e+01 4.630550023852e-09-6.344205981416e-01
    7.003545761108e-07 2.379180747084e-03 1.005083322525e-05 5.153734243393e+03
    5.543840000000e+05 9.313225746155e-08 2.106168256990e+00 8.195638656616e-08
    9.565795518922e-01 1.854062500000e+02-2.628347046279e+00-8.035334703943e-09
    2.500104139373e-11 1.000000000000e+00 2.031000000000e+03 0.000000000000e+00
    2.400000000000e+00 0.000000000000e+00 4.656612873077e-10 7.000000000000e+00
    5.472060000000e+05 4.000000000000e+00
